*******************************************************************************
Ephemeris / WWW_USER Mon Mar 24 08:05:30 2025 Pasadena, USA      / Horizons    
*******************************************************************************
Target body name: (2018 US2)                      {source: JPL#14}
Center body name: Earth (399)                     {source: DE441}
Center-site name: Mauna Kea
*******************************************************************************
Start time      : A.D. 2018-Oct-04 04:17:00.0000 UT      
Stop  time      : A.D. 2018-Oct-04 16:04:00.0000 UT      
Step-size       : 1 minutes
*******************************************************************************
Target pole/equ : undefined
Target radii    : undefined                                                    
Center geodetic : 204.5278, 19.8260847, 4.21024   {E-lon(deg),Lat(deg),Alt(km)}
Center cylindric: 204.5278, 6006.35451, 2151.0229 {E-lon(deg),Dxy(km),Dz(km)}
Center pole/equ : ITRF93                          {East-longitude positive}
Center radii    : 6378.137, 6378.137, 6356.752 km {Equator_a, b, pole_c}       
Target primary  : Sun
Vis. interferer : MOON (R_eq= 1737.400) km        {source: DE441}
Rel. light bend : Sun                             {source: DE441}
Rel. lght bnd GM: 1.3271E+11 km^3/s^2                                          
Small-body perts: Yes                             {source: SB441-N16}
Atmos refraction: NO (AIRLESS)
RA format       : HMS
Time format     : CAL 
Calendar mode   : Mixed Julian/Gregorian
RTS-only print  : NO       
EOP file        : eop.250321.p250617                                           
EOP coverage    : DATA-BASED 1962-JAN-20 TO 2025-MAR-21. PREDICTS-> 2025-JUN-16
Units conversion: 1 au= 149597870.700 km, c= 299792.458 km/s, 1 day= 86400.0 s 
Table cut-offs 1: Elevation (-90.0deg=NO ),Airmass (>38.000=NO), Daylight (YES)
Table cut-offs 2: Solar elongation (  0.0,180.0=NO ),Local Hour Angle( 0.0=NO )
Table cut-offs 3: RA/DEC angular rate (     0.0=NO )                           
*******************************************************************************
Initial IAU76/J2000 heliocentric ecliptic osculating elements (au, days, deg.):
  EPOCH=  2458424.5 ! 2018-Nov-02.00 (TDB)         Residual RMS= .2503         
   EC= .6580934192644969   QR= 1.019516546973241   TP= 2458405.4003266119      
   OM= 225.9089147719754   W=  151.3321843630243   IN= 7.044798776353047       
  Equivalent ICRF heliocentric cartesian coordinates (au, au/d):
   X= 8.026033061055595E-01  Y= 6.200562709856074E-01  Z= 2.826199844552283E-01
  VX=-1.102263624249032E-02 VY= 1.780430100977025E-02 VZ= 4.937770740848229E-03
Asteroid physical parameters (km, seconds, rotational period in hours):        
   GM= n.a.                RAD= n.a.               ROTPER= n.a.                
   H= 24.88                G= .150                 B-V= n.a.                   
                           ALBEDO= n.a.            STYP= n.a.                  
*******************************************************************************
 Date__(UT)__HR:MN     R.A._________(ICRF)_________DEC
******************************************************
$$SOE
 2018-Oct-04 14:32  m  19 14 32.426946 +19 34 36.74897
 2018-Oct-04 14:33  m  19 14 32.558447 +19 34 38.40375
 2018-Oct-04 14:34  m  19 14 32.690007 +19 34 40.05896
 2018-Oct-04 14:35  m  19 14 32.821625 +19 34 41.71463
 2018-Oct-04 14:36  m  19 14 32.953301 +19 34 43.37074
 2018-Oct-04 14:37  m  19 14 33.085035 +19 34 45.02729
 2018-Oct-04 14:38  m  19 14 33.216826 +19 34 46.68429
 2018-Oct-04 14:39  m  19 14 33.348674 +19 34 48.34174
 2018-Oct-04 14:40  m  19 14 33.480578 +19 34 49.99964
 2018-Oct-04 14:41  m  19 14 33.612539 +19 34 51.65798
 2018-Oct-04 14:42  m  19 14 33.744555 +19 34 53.31678
 2018-Oct-04 14:43  m  19 14 33.876627 +19 34 54.97604
 2018-Oct-04 14:44  m  19 14 34.008755 +19 34 56.63574
 2018-Oct-04 14:45  m  19 14 34.140937 +19 34 58.29590
 2018-Oct-04 14:46  m  19 14 34.273174 +19 34 59.95651
 2018-Oct-04 14:47  m  19 14 34.405464 +19 35 01.61758
 2018-Oct-04 14:48  m  19 14 34.537809 +19 35 03.27911
 2018-Oct-04 14:49  m  19 14 34.670208 +19 35 04.94110
 2018-Oct-04 14:50  m  19 14 34.802659 +19 35 06.60354
 2018-Oct-04 14:51  m  19 14 34.935164 +19 35 08.26645
 2018-Oct-04 14:52  m  19 14 35.067720 +19 35 09.92981
 2018-Oct-04 14:53  m  19 14 35.200329 +19 35 11.59364
 2018-Oct-04 14:54  m  19 14 35.332990 +19 35 13.25793
 2018-Oct-04 14:55  m  19 14 35.465702 +19 35 14.92269
 2018-Oct-04 14:56  m  19 14 35.598466 +19 35 16.58791
 2018-Oct-04 14:57  m  19 14 35.731280 +19 35 18.25359
 2018-Oct-04 14:58  m  19 14 35.864144 +19 35 19.91975
 2018-Oct-04 14:59  m  19 14 35.997059 +19 35 21.58637
 2018-Oct-04 15:00  m  19 14 36.130023 +19 35 23.25346
 2018-Oct-04 15:01 Am  19 14 36.263036 +19 35 24.92102
 2018-Oct-04 15:02 Am  19 14 36.396099 +19 35 26.58905
 2018-Oct-04 15:03 Am  19 14 36.529210 +19 35 28.25755
 2018-Oct-04 15:04 Am  19 14 36.662369 +19 35 29.92652
 2018-Oct-04 15:05 Am  19 14 36.795577 +19 35 31.59597
 2018-Oct-04 15:06 Am  19 14 36.928832 +19 35 33.26589
 2018-Oct-04 15:07 Am  19 14 37.062134 +19 35 34.93629
 2018-Oct-04 15:08 Am  19 14 37.195483 +19 35 36.60716
 2018-Oct-04 15:09 Am  19 14 37.328878 +19 35 38.27851
 2018-Oct-04 15:10 Am  19 14 37.462319 +19 35 39.95033
 2018-Oct-04 15:11 Am  19 14 37.595807 +19 35 41.62263
 2018-Oct-04 15:12 Am  19 14 37.729339 +19 35 43.29542
 2018-Oct-04 15:13 Am  19 14 37.862917 +19 35 44.96868
 2018-Oct-04 15:14 Am  19 14 37.996539 +19 35 46.64242
 2018-Oct-04 15:15 Am  19 14 38.130206 +19 35 48.31665
 2018-Oct-04 15:16 Am  19 14 38.263917 +19 35 49.99135
 2018-Oct-04 15:17 Am  19 14 38.397671 +19 35 51.66655
 2018-Oct-04 15:18 Am  19 14 38.531468 +19 35 53.34222
 2018-Oct-04 15:19 Am  19 14 38.665308 +19 35 55.01838
 2018-Oct-04 15:20 Am  19 14 38.799191 +19 35 56.69502
 2018-Oct-04 15:21 Am  19 14 38.933116 +19 35 58.37215
 2018-Oct-04 15:22 Am  19 14 39.067082 +19 36 00.04977
 2018-Oct-04 15:23 Am  19 14 39.201090 +19 36 01.72788
 2018-Oct-04 15:24 Am  19 14 39.335139 +19 36 03.40647
 2018-Oct-04 15:25 Am  19 14 39.469229 +19 36 05.08555
 2018-Oct-04 15:26 Nm  19 14 39.603358 +19 36 06.76512
 2018-Oct-04 15:27 Nm  19 14 39.737528 +19 36 08.44519
 2018-Oct-04 15:28 Nm  19 14 39.871737 +19 36 10.12574
 2018-Oct-04 15:29 Nm  19 14 40.005985 +19 36 11.80679
 2018-Oct-04 15:30 Nm  19 14 40.140273 +19 36 13.48833
 2018-Oct-04 15:31 Nm  19 14 40.274598 +19 36 15.17036
 2018-Oct-04 15:32 Nm  19 14 40.408961 +19 36 16.85289
 2018-Oct-04 15:33 Nm  19 14 40.543363 +19 36 18.53591
 2018-Oct-04 15:34 Nm  19 14 40.677801 +19 36 20.21943
 2018-Oct-04 15:35 Nm  19 14 40.812276 +19 36 21.90344
 2018-Oct-04 15:36 Nm  19 14 40.946788 +19 36 23.58795
 2018-Oct-04 15:37 Nm  19 14 41.081336 +19 36 25.27295
 2018-Oct-04 15:38 Nm  19 14 41.215919 +19 36 26.95846
 2018-Oct-04 15:39 Nm  19 14 41.350538 +19 36 28.64446
 2018-Oct-04 15:40 Nm  19 14 41.485192 +19 36 30.33096
 2018-Oct-04 15:41 Nm  19 14 41.619881 +19 36 32.01797
 2018-Oct-04 15:42 Nm  19 14 41.754604 +19 36 33.70547
 2018-Oct-04 15:43 Nm  19 14 41.889361 +19 36 35.39347
 2018-Oct-04 15:44 Nm  19 14 42.024151 +19 36 37.08198
 2018-Oct-04 15:45 Nm  19 14 42.158974 +19 36 38.77098
 2018-Oct-04 15:46 Nm  19 14 42.293830 +19 36 40.46049
 2018-Oct-04 15:47 Nm  19 14 42.428718 +19 36 42.15051
 2018-Oct-04 15:48 Nm  19 14 42.563638 +19 36 43.84102
 2018-Oct-04 15:49 Nm  19 14 42.698590 +19 36 45.53204
 2018-Oct-04 15:50 Nm  19 14 42.833573 +19 36 47.22357
 2018-Oct-04 15:51 Nm  19 14 42.968586 +19 36 48.91560
 2018-Oct-04 15:52 Cm  19 14 43.103631 +19 36 50.60814
 2018-Oct-04 15:53 Cm  19 14 43.238705 +19 36 52.30118
 2018-Oct-04 15:54 Cm  19 14 43.373808 +19 36 53.99473
 2018-Oct-04 15:55 Cm  19 14 43.508941 +19 36 55.68879
 2018-Oct-04 15:56 Cm  19 14 43.644103 +19 36 57.38336
 2018-Oct-04 15:57 Cm  19 14 43.779293 +19 36 59.07843
 2018-Oct-04 15:58 Cm  19 14 43.914512 +19 37 00.77402
 2018-Oct-04 15:59 Cm  19 14 44.049758 +19 37 02.47011
 2018-Oct-04 16:00 Cm  19 14 44.185031 +19 37 04.16671
 2018-Oct-04 16:01 Cm  19 14 44.320331 +19 37 05.86382
 2018-Oct-04 16:02 Cm  19 14 44.455658 +19 37 07.56145
 2018-Oct-04 16:03 Cm  19 14 44.591010 +19 37 09.25958
 2018-Oct-04 16:04 Cm  19 14 44.726389 +19 37 10.95823
